{"fetched_at":"2026-03-29T02:12:04Z","count":15717,"tles":[{"name":"PRSC-EO1","line1":"1 62725U 25012A   26087.29273032  .00009521  00000+0  47428-3 0  9997","line2":"2 62725  97.4274 161.3142 0007077 160.5892 199.5613 15.17758872 65924","category":"Other"}]}