{
  "norad_id": 62725,
  "name": "PRSC-EO1",
  "history": [
    {
      "epoch": "2026-03-28T07:01:31.899648Z",
      "apogee_km": 517.4921361259921,
      "perigee_km": 507.7389649659499,
      "latitude_deg": 3.95345389381768e-05,
      "longitude_deg": -129.78398418447375,
      "height_km": 520.298758702291,
      "semi_major_axis_km": 6890.752550545971,
      "eccentricity": 0.0007077,
      "inclination_deg": 97.4274,
      "raan_deg": 161.3142,
      "arg_perigee_deg": 160.5892,
      "mean_anomaly_deg": 199.5613,
      "mean_motion_rev_day": 15.17758872
    }
  ]
}